ONEWEB-0436             
1 51633U 22012M   23307.18925064  .00000092  00000+0  20253-3 0  9990
2 51633  87.9188 196.0726 0001686  66.2686 293.8622 13.17649086 88943
ONEWEB-0438             
1 51634U 22012N   23306.80855547 -.00000824  00000+0 -23980-2 0  9991
2 51634  87.8921 226.3898 0001969  71.9013 288.2329 13.10373925 83964
ONEWEB-0439             
1 51635U 22012P   23306.81180282 -.00000632  00000+0 -18466-2 0  9990
2 51635  87.8924 226.3724 0001761  72.2429 287.8891 13.10369923 83941
ONEWEB-0442             
1 51636U 22012Q   23307.18081719  .00000076  00000+0  16190-3 0  9990
2 51636  87.9251 196.0985 0002052  99.3245 260.8118 13.17650986 88934
ONEWEB-0443             
1 51637U 22012R   23307.19979857  .00000114  00000+0  26030-3 0  9998
2 51637  87.9248 196.1002 0001991  59.1825 300.9502 13.17647246 88984
ONEWEB-0444             
1 51638U 22012S   23306.80205629 -.00000489  00000+0 -14376-2 0  9991
2 51638  87.8925 226.4031 0001827  66.2304 293.9015 13.10371518 83955
ONEWEB-0445             
1 51639U 22012T   23306.82317374 -.00000612  00000+0 -17891-2 0  9998
2 51639  87.8930 226.3851 0001856  85.5400 274.5940 13.10374636 83961
ONEWEB-0446             
1 51640U 22012U   23306.87679410 -.00000496  00000+0 -14570-2 0  9998
2 51640  87.8922 226.3793 0001616  76.7189 283.4119 13.10368545 83957
ONEWEB-0448             
1 51641U 22012V   23306.80530855 -.00000562  00000+0 -16478-2 0  9994
2 51641  87.8921 226.3949 0001902  66.7132 293.4196 13.10368645 83918
ONEWEB-0449             
1 51642U 22012W   23306.81018757 -.00000664  00000+0 -19399-2 0  9996
2 51642  87.8926 226.3976 0002008  75.7606 284.3745 13.10368087 83928
ONEWEB-0451             
1 51643U 22012X   23307.18502883  .00000085  00000+0  18516-3 0  9992
2 51643  87.9190 196.0768 0001909  69.9683 290.1654 13.17648531 88936
ONEWEB-0452             
1 51644U 22012Y   23306.72729650 -.00000746  00000+0 -19544-2 0  9992
2 51644  87.9251 196.1891 0002422  76.2243 283.9158 13.17652516 87584
ONEWEB-0455             
1 51645U 22012Z   23307.14838065  .00000418  00000+0  17889-3 0  9996
2 51645  87.5392 181.7322 0017477   9.6689 350.4835 14.22627177 91305
ONEWEB-0456             
1 51646U 22012AA  23306.81994537 -.00000438  00000+0 -12917-2 0  9997
2 51646  87.8926 226.3784 0001538  63.0944 297.0341 13.10375010 83962
ONEWEB-0457             
1 51647U 22012AB  23306.79718684 -.00000290  00000+0 -86837-3 0  9991
2 51647  87.8920 226.3863 0002092  81.8227 278.3138 13.10370786 83964
ONEWEB-0458             
1 51648U 22012AC  23307.20010122  .00001513  00000+0  42980-2 0  9998
2 51648  87.8925 226.3193 0002120  61.7996 298.3345 13.10366721 85270
ONEWEB-0461             
1 51649U 22012AD  23306.74839118  .00000164  00000+0  38977-3 0  9994
2 51649  87.9246 196.1640 0001921  77.1701 282.9645 13.17653215 87809
ONEWEB-0463             
1 51650U 22012AE  23306.95933440 -.00000005  00000+0 -44750-4 0  9995
2 51650  87.9254 196.1581 0001741  79.1990 280.9338 13.17649179 87616
ONEWEB-0464             
1 51651U 22012AF  23307.19683571 -.00000538  00000+0 -15772-2 0  9991
2 51651  87.8925 226.3083 0001568  57.9830 302.1450 13.10371327 85292
ONEWEB-0468             
1 51652U 22012AG  23306.82155162 -.00000590  00000+0 -17265-2 0  9998
2 51652  87.8926 226.3760 0001862  69.1758 290.9568 13.10376914 83926
ONEWEB-0473             
1 51653U 22012AH  23307.18871648 -.00000571  00000+0 -16716-2 0  9992
2 51653  87.8921 226.3073 0001840  67.1211 293.0111 13.10372354 85279
ONEWEB-0474             
1 51654U 22012AJ  23306.79881622 -.00000290  00000+0 -86815-3 0  9998
2 51654  87.8997 226.3815 0001793  61.6602 298.4706 13.10367736 83913
ONEWEB-0475             
1 51655U 22012AK  23306.74206992  .00000061  00000+0  12381-3 0  9996
2 51655  87.9253 196.1791 0001958  61.7238 298.4091 13.17647634 87608
EOS-4                   
1 51656U 22013A   23307.20610799  .00003594  00000+0  20889-3 0  9990
2 51656  97.5174 312.3032 0002125 101.6279 258.5190 15.12724039 94814
INSPIRESAT-1            
1 51657U 22013B   23306.92343484  .00007725  00000+0  35549-3 0  9992
2 51657  97.5445 317.9651 0008162 241.0808 118.9609 15.20582487 94977
INS-2TD                 
1 51658U 22013C   23306.75872618  .00024246  00000+0  88442-3 0  9997
2 51658  97.5423 320.0631 0006253 230.0423 130.0268 15.28132993 95100
STARLINK-3528           
1 51714U 22016A   23307.13668049  .00001962  00000+0  14128-3 0  9997
2 51714  53.2173 218.8264 0001754  82.4087 277.7104 15.08847416 95037
STARLINK-3533           
1 51715U 22016B   23306.92787619  .00001090  00000+0  86576-4 0  9998
2 51715  53.2157 219.7708 0001541 102.5931 257.5233 15.08841283 95067
STARLINK-3543           
1 51716U 22016C   23307.06676050  .00001209  00000+0  94040-4 0  9998
2 51716  53.2164 219.1411 0001495  86.9543 273.1621 15.08844683 95010
STARLINK-3445           
1 51717U 22016D   23307.13764666  .00002493  00000+0  17464-3 0  9998
2 51717  53.2174 218.9102 0001717  94.6203 265.4985 15.08847998 95099
STARLINK-3546           
1 51718U 22016E   23306.91588031  .00003227  00000+0  22070-3 0  9999
2 51718  53.2161 219.8142 0001615  97.1557 262.9619 15.08844145 95050
STARLINK-3540           
1 51719U 22016F   23306.93060862 -.00000914  00000+0 -39306-4 0  9992
2 51719  53.2172 219.8267 0001609 100.1818 259.9356 15.08839867 93933
STARLINK-3526           
1 51720U 22016G   23307.17443289  .00001847  00000+0  13410-3 0  9990
2 51720  53.2170 218.6271 0001494  86.0104 274.1059 15.08847234 95025
STARLINK-3524           
1 51721U 22016H   23306.92051751 -.00000405  00000+0 -73613-5 0  9996
2 51721  53.2175 219.8075 0001447  88.9206 271.1952 15.08840263 93930
STARLINK-3535           
1 51722U 22016J   23306.90484142  .00000695  00000+0  61737-4 0  9991
2 51722  53.2175 219.8675 0001622  92.5174 267.6004 15.08840097 93929
STARLINK-3531           
1 51723U 22016K   23307.17911918  .00000278  00000+0  56967-5 0  9995
2 51723  53.1724 292.3629 0001246  80.4270 279.6892 15.76734776 99070
STARLINK-3529           
1 51724U 22016L   23307.16243467  .00003933  00000+0  26498-3 0  9997
2 51724  53.2173 218.7073 0001674 109.8516 250.2657 15.08855031 95027
STARLINK-3522           
1 51725U 22016M   23306.90851949  .00000462  00000+0  47093-4 0  9998
2 51725  53.2156 219.8514 0001480  98.0997 262.0163 15.08843384 93926
STARLINK-3527           
1 51726U 22016N   23306.93888294  .00001264  00000+0  97475-4 0  9995
2 51726  53.2161 209.7159 0001897  83.8556 276.2652 15.08841365 94075
STARLINK-3532           
1 51727U 22016P   23306.90116286  .00000005  00000+0  18422-4 0  9995
2 51727  53.2184 219.8836 0001494  93.1907 266.9256 15.08837991 93921
STARLINK-3448           
1 51728U 22016Q   23306.93151900  .00003472  00000+0  23610-3 0  9996
2 51728  53.2166 209.7460 0001884  96.9555 263.1651 15.08846389 94072
STARLINK-3523           
1 51729U 22016R   23307.14127766  .00001284  00000+0  98744-4 0  9994
2 51729  53.2173 208.8044 0001474  87.6680 272.4481 15.08850878 95231
STARLINK-3530           
1 51730U 22016S   23306.92415982  .00002236  00000+0  15850-3 0  9995
2 51730  53.2161 209.7813 0001377  86.4276 273.6873 15.08842551 94072
STARLINK-3514           
1 51731U 22016T   23306.93520177  .00008164  00000+0  53037-3 0  9995
2 51731  53.2160 209.7322 0001432  82.8146 277.3009 15.08843711 94076
STARLINK-3518           
1 51732U 22016U   23307.05296156  .00001019  00000+0  82117-4 0  9991
2 51732  53.2161 209.2032 0001524  78.1486 281.9677 15.08842152 95237
STARLINK-3525           
1 51733U 22016V   23306.92879920  .00001959  00000+0  14112-3 0  9995
2 51733  53.2157 209.7698 0001472  92.5838 267.5323 15.08845469 94072
STARLINK-3450           
1 51734U 22016W   23307.17439946  .00001481  00000+0  11113-3 0  9992
2 51734  53.2159 208.6561 0001560  77.6591 282.4576 15.08845263 95215
STARLINK-3517           
1 51735U 22016X   23306.91680019  .00001496  00000+0  11204-3 0  9990
2 51735  53.2155 209.8135 0001363  87.4068 272.7081 15.08838639 94076
STARLINK-3447           
1 51736U 22016Y   23307.17536654  .00020744  00000+0  13171-2 0  9996
2 51736  53.2155 208.7409 0001838  93.7555 266.3647 15.08854733 95236
STARLINK-3509           
1 51737U 22016Z   23307.11183768  .00004751  00000+0  31628-3 0  9993
2 51737  53.2151 208.9363 0001767  82.2517 277.8676 15.08851751 95153
STARLINK-3515           
1 51738U 22016AA  23307.02719918  .00015230  00000+0  97258-3 0  9991
2 51738  53.2169 209.3189 0001385  85.9867 274.1284 15.08853608 95190
STARLINK-3516           
1 51739U 22016AB  23307.17071854  .00003018  00000+0  20761-3 0  9994
2 51739  53.2156 208.6729 0001308  85.4029 274.7113 15.08847151 95226
STARLINK-3500           
1 51740U 22016AC  23307.15231565 -.00000019  00000+0  16900-4 0  9991
2 51740  53.2169 208.7565 0001382  99.5031 260.6118 15.08849475 95165
STARLINK-3520           
1 51741U 22016AD  23307.16432005  .00016272  00000+0  10380-2 0  9996
2 51741  53.2161 208.7134 0001297  83.6815 276.4325 15.08844549 95217
STARLINK-3521           
1 51742U 22016AE  23307.03458164  .00000384  00000+0  42223-4 0  9997
2 51742  53.2178 209.4816 0001604  95.3601 264.7574 15.08844351 95213
STARLINK-3512           
1 51743U 22016AF  23306.90299198 -.00000089  00000+0  12508-4 0  9999
2 51743  53.2167 199.7968 0001603  77.0968 283.0203 15.08841792 94200
STARLINK-3452           
1 51744U 22016AG  23306.94624516  .00002262  00000+0  16012-3 0  9997
2 51744  53.2163 209.7072 0001517  98.9121 261.2043 15.08844735 94077
STARLINK-3449           
1 51745U 22016AH  23307.15599913  .00011935  00000+0  76646-3 0  9990
2 51745  53.2167 208.7395 0001382  77.8606 282.2541 15.08851781 95237
STARLINK-3502           
1 51746U 22016AJ  23306.90764193  .00000933  00000+0  76720-4 0  9997
2 51746  53.2166 199.8638 0001459  86.3177 273.7982 15.08840312 94208
